[{"OBJECT_NAME":"STARLINK-5772","OBJECT_ID":"2023-042AQ","EPOCH":"2026-03-09T23:19:15.524544","MEAN_MOTION":15.02641737,"ECCENTRICITY":0.0001064,"INCLINATION":43.007,"RA_OF_ASC_NODE":41.4855,"ARG_OF_PERICENTER":311.1431,"MEAN_ANOMALY":48.932,"EPHEMERIS_TYPE":0,"CLASSIFICATION_TYPE":"U","NORAD_CAT_ID":56024,"ELEMENT_SET_NO":999,"REV_AT_EPOCH":16310,"BSTAR":0.00095049441,"MEAN_MOTION_DOT":0.00012695,"MEAN_MOTION_DDOT":0},{"OBJECT_NAME":"UNKNOWN","OBJECT_ID":"","EPOCH":"2026-03-04T22:11:39.610464","MEAN_MOTION":14.49090755,"ECCENTRICITY":0.0282259,"INCLINATION":82.0644,"RA_OF_ASC_NODE":144.6703,"ARG_OF_PERICENTER":28.1067,"MEAN_ANOMALY":333.504,"EPHEMERIS_TYPE":0,"CLASSIFICATION_TYPE":"U","NORAD_CAT_ID":89172,"ELEMENT_SET_NO":999,"REV_AT_EPOCH":61378,"BSTAR":0.001137,"MEAN_MOTION_DOT":7.23e-5,"MEAN_MOTION_DDOT":0}]
